FENGYUN 1C DEB          
1 31692U 99025CDA 17344.31997155 -.00000050  00000-0 -38609-5 0  9993
2 31692  99.1580 292.9619 0115888 209.4920 149.9669 13.94104517172795
